IRIDIUM 108             
1 41924U 17003H   20312.74757448  .00000024  00000-0  16127-5 0  9993
2 41924  86.4023 192.4162 0002219  91.6533 268.4916 14.34215975201641
IRIDIUM 112             
1 41925U 17003J   20312.77636890  .00000093  00000-0  26126-4 0  9999
2 41925  86.4018 223.8875 0002367  75.5696 284.5762 14.34219449199847
IRIDIUM 111             
1 41926U 17003K   20312.83346113  .00000088  00000-0  24414-4 0  9995
2 41926  86.4020 223.8898 0001718  86.2289 273.9103 14.34219478199878
IRIDIUM 113             
1 42803U 17039A   20312.67388385  .00000112  00000-0  32971-4 0  9993
2 42803  86.3948  97.7296 0001728 100.9521 259.1869 14.34217615177710
