<ndm xmlns:xsi="http://www.w3.org/2001/XMLSchema-instance" xsi:noNamespaceSchemaLocation="http://sanaregistry.org/r/ndmxml/ndmxml-1.0-master.xsd">
<omm id="CCSDS_OMM_VERS" version="2.0">
<header>
<COMMENT>GENERATED VIA SPACE-TRACK.ORG API</COMMENT>
<CREATION_DATE>2020-11-08T05:03:59</CREATION_DATE>
<ORIGINATOR>18 SPCS</ORIGINATOR>
</header>
<body>
<segment>
<metadata>
<OBJECT_NAME>IRIDIUM 108</OBJECT_NAME>
<OBJECT_ID>2017-003H</OBJECT_ID>
<CENTER_NAME>EARTH</CENTER_NAME>
<REF_FRAME>TEME</REF_FRAME>
<TIME_SYSTEM>UTC</TIME_SYSTEM>
<MEAN_ELEMENT_THEORY>SGP4</MEAN_ELEMENT_THEORY>
</metadata>
<data>
<meanElements>
<EPOCH>2020-11-07T17:56:30.435072</EPOCH>
<MEAN_MOTION>14.34215975</MEAN_MOTION>
<ECCENTRICITY>0.00022190</ECCENTRICITY>
<INCLINATION>86.4023</INCLINATION>
<RA_OF_ASC_NODE>192.4162</RA_OF_ASC_NODE>
<ARG_OF_PERICENTER>91.6533</ARG_OF_PERICENTER>
<MEAN_ANOMALY>268.4916</MEAN_ANOMALY>
</meanElements>
<tleParameters>
<EPHEMERIS_TYPE>0</EPHEMERIS_TYPE>
<CLASSIFICATION_TYPE>U</CLASSIFICATION_TYPE>
<NORAD_CAT_ID>41924</NORAD_CAT_ID>
<ELEMENT_SET_NO>999</ELEMENT_SET_NO>
<REV_AT_EPOCH>20164</REV_AT_EPOCH>
<BSTAR>0.00000161270000</BSTAR>
<MEAN_MOTION_DOT>0.00000024</MEAN_MOTION_DOT>
<MEAN_MOTION_DDOT>0.0000000000000</MEAN_MOTION_DDOT>
</tleParameters>
<userDefinedParameters>
<USER_DEFINED parameter="SEMIMAJOR_AXIS">7155.810</USER_DEFINED>
<USER_DEFINED parameter="PERIOD">100.403</USER_DEFINED>
<USER_DEFINED parameter="APOAPSIS">779.262</USER_DEFINED>
<USER_DEFINED parameter="PERIAPSIS">776.087</USER_DEFINED>
<USER_DEFINED parameter="OBJECT_TYPE">PAYLOAD</USER_DEFINED>
<USER_DEFINED parameter="RCS_SIZE">LARGE</USER_DEFINED>
<USER_DEFINED parameter="COUNTRY_CODE">US</USER_DEFINED>
<USER_DEFINED parameter="LAUNCH_DATE">2017-01-14</USER_DEFINED>
<USER_DEFINED parameter="SITE">AFWTR</USER_DEFINED>
<USER_DEFINED parameter="DECAY_DATE"/>
<USER_DEFINED parameter="DECAYED"/>
<USER_DEFINED parameter="FILE">2875047</USER_DEFINED>
<USER_DEFINED parameter="GP_ID">165124825</USER_DEFINED>
</userDefinedParameters>
</data>
</segment>
</body>
</omm>
<omm id="CCSDS_OMM_VERS" version="2.0">
<header>
<COMMENT>GENERATED VIA SPACE-TRACK.ORG API</COMMENT>
<CREATION_DATE>2020-11-07T22:16:10</CREATION_DATE>
<ORIGINATOR>18 SPCS</ORIGINATOR>
</header>
<body>
<segment>
<metadata>
<OBJECT_NAME>IRIDIUM 112</OBJECT_NAME>
<OBJECT_ID>2017-003J</OBJECT_ID>
<CENTER_NAME>EARTH</CENTER_NAME>
<REF_FRAME>TEME</REF_FRAME>
<TIME_SYSTEM>UTC</TIME_SYSTEM>
<MEAN_ELEMENT_THEORY>SGP4</MEAN_ELEMENT_THEORY>
</metadata>
<data>
<meanElements>
<EPOCH>2020-11-07T18:37:58.272960</EPOCH>
<MEAN_MOTION>14.34219449</MEAN_MOTION>
<ECCENTRICITY>0.00023670</ECCENTRICITY>
<INCLINATION>86.4018</INCLINATION>
<RA_OF_ASC_NODE>223.8875</RA_OF_ASC_NODE>
<ARG_OF_PERICENTER>75.5696</ARG_OF_PERICENTER>
<MEAN_ANOMALY>284.5762</MEAN_ANOMALY>
</meanElements>
<tleParameters>
<EPHEMERIS_TYPE>0</EPHEMERIS_TYPE>
<CLASSIFICATION_TYPE>U</CLASSIFICATION_TYPE>
<NORAD_CAT_ID>41925</NORAD_CAT_ID>
<ELEMENT_SET_NO>999</ELEMENT_SET_NO>
<REV_AT_EPOCH>19984</REV_AT_EPOCH>
<BSTAR>0.00002612600000</BSTAR>
<MEAN_MOTION_DOT>0.00000093</MEAN_MOTION_DOT>
<MEAN_MOTION_DDOT>0.0000000000000</MEAN_MOTION_DDOT>
</tleParameters>
<userDefinedParameters>
<USER_DEFINED parameter="SEMIMAJOR_AXIS">7155.798</USER_DEFINED>
<USER_DEFINED parameter="PERIOD">100.403</USER_DEFINED>
<USER_DEFINED parameter="APOAPSIS">779.357</USER_DEFINED>
<USER_DEFINED parameter="PERIAPSIS">775.969</USER_DEFINED>
<USER_DEFINED parameter="OBJECT_TYPE">PAYLOAD</USER_DEFINED>
<USER_DEFINED parameter="RCS_SIZE">LARGE</USER_DEFINED>
<USER_DEFINED parameter="COUNTRY_CODE">US</USER_DEFINED>
<USER_DEFINED parameter="LAUNCH_DATE">2017-01-14</USER_DEFINED>
<USER_DEFINED parameter="SITE">AFWTR</USER_DEFINED>
<USER_DEFINED parameter="DECAY_DATE"/>
<USER_DEFINED parameter="DECAYED"/>
<USER_DEFINED parameter="FILE">2874792</USER_DEFINED>
<USER_DEFINED parameter="GP_ID">165101902</USER_DEFINED>
</userDefinedParameters>
</data>
</segment>
</body>
</omm>
<omm id="CCSDS_OMM_VERS" version="2.0">
<header>
<COMMENT>GENERATED VIA SPACE-TRACK.ORG API</COMMENT>
<CREATION_DATE>2020-11-07T22:16:10</CREATION_DATE>
<ORIGINATOR>18 SPCS</ORIGINATOR>
</header>
<body>
<segment>
<metadata>
<OBJECT_NAME>IRIDIUM 111</OBJECT_NAME>
<OBJECT_ID>2017-003K</OBJECT_ID>
<CENTER_NAME>EARTH</CENTER_NAME>
<REF_FRAME>TEME</REF_FRAME>
<TIME_SYSTEM>UTC</TIME_SYSTEM>
<MEAN_ELEMENT_THEORY>SGP4</MEAN_ELEMENT_THEORY>
</metadata>
<data>
<meanElements>
<EPOCH>2020-11-07T20:00:11.041632</EPOCH>
<MEAN_MOTION>14.34219478</MEAN_MOTION>
<ECCENTRICITY>0.00017180</ECCENTRICITY>
<INCLINATION>86.4020</INCLINATION>
<RA_OF_ASC_NODE>223.8898</RA_OF_ASC_NODE>
<ARG_OF_PERICENTER>86.2289</ARG_OF_PERICENTER>
<MEAN_ANOMALY>273.9103</MEAN_ANOMALY>
</meanElements>
<tleParameters>
<EPHEMERIS_TYPE>0</EPHEMERIS_TYPE>
<CLASSIFICATION_TYPE>U</CLASSIFICATION_TYPE>
<NORAD_CAT_ID>41926</NORAD_CAT_ID>
<ELEMENT_SET_NO>999</ELEMENT_SET_NO>
<REV_AT_EPOCH>19987</REV_AT_EPOCH>
<BSTAR>0.00002441400000</BSTAR>
<MEAN_MOTION_DOT>0.00000088</MEAN_MOTION_DOT>
<MEAN_MOTION_DDOT>0.0000000000000</MEAN_MOTION_DDOT>
</tleParameters>
<userDefinedParameters>
<USER_DEFINED parameter="SEMIMAJOR_AXIS">7155.798</USER_DEFINED>
<USER_DEFINED parameter="PERIOD">100.403</USER_DEFINED>
<USER_DEFINED parameter="APOAPSIS">778.892</USER_DEFINED>
<USER_DEFINED parameter="PERIAPSIS">776.434</USER_DEFINED>
<USER_DEFINED parameter="OBJECT_TYPE">PAYLOAD</USER_DEFINED>
<USER_DEFINED parameter="RCS_SIZE">LARGE</USER_DEFINED>
<USER_DEFINED parameter="COUNTRY_CODE">US</USER_DEFINED>
<USER_DEFINED parameter="LAUNCH_DATE">2017-01-14</USER_DEFINED>
<USER_DEFINED parameter="SITE">AFWTR</USER_DEFINED>
<USER_DEFINED parameter="DECAY_DATE"/>
<USER_DEFINED parameter="DECAYED"/>
<USER_DEFINED parameter="FILE">2874774</USER_DEFINED>
<USER_DEFINED parameter="GP_ID">165102152</USER_DEFINED>
</userDefinedParameters>
</data>
</segment>
</body>
</omm>
<omm id="CCSDS_OMM_VERS" version="2.0">
<header>
<COMMENT>GENERATED VIA SPACE-TRACK.ORG API</COMMENT>
<CREATION_DATE>2020-11-08T05:03:59</CREATION_DATE>
<ORIGINATOR>18 SPCS</ORIGINATOR>
</header>
<body>
<segment>
<metadata>
<OBJECT_NAME>IRIDIUM 113</OBJECT_NAME>
<OBJECT_ID>2017-039A</OBJECT_ID>
<CENTER_NAME>EARTH</CENTER_NAME>
<REF_FRAME>TEME</REF_FRAME>
<TIME_SYSTEM>UTC</TIME_SYSTEM>
<MEAN_ELEMENT_THEORY>SGP4</MEAN_ELEMENT_THEORY>
</metadata>
<data>
<meanElements>
<EPOCH>2020-11-07T16:10:23.564640</EPOCH>
<MEAN_MOTION>14.34217615</MEAN_MOTION>
<ECCENTRICITY>0.00017280</ECCENTRICITY>
<INCLINATION>86.3948</INCLINATION>
<RA_OF_ASC_NODE>97.7296</RA_OF_ASC_NODE>
<ARG_OF_PERICENTER>100.9521</ARG_OF_PERICENTER>
<MEAN_ANOMALY>259.1869</MEAN_ANOMALY>
</meanElements>
<tleParameters>
<EPHEMERIS_TYPE>0</EPHEMERIS_TYPE>
<CLASSIFICATION_TYPE>U</CLASSIFICATION_TYPE>
<NORAD_CAT_ID>42803</NORAD_CAT_ID>
<ELEMENT_SET_NO>999</ELEMENT_SET_NO>
<REV_AT_EPOCH>17771</REV_AT_EPOCH>
<BSTAR>0.00003297100000</BSTAR>
<MEAN_MOTION_DOT>0.00000112</MEAN_MOTION_DOT>
<MEAN_MOTION_DDOT>0.0000000000000</MEAN_MOTION_DDOT>
</tleParameters>
<userDefinedParameters>
<USER_DEFINED parameter="SEMIMAJOR_AXIS">7155.804</USER_DEFINED>
<USER_DEFINED parameter="PERIOD">100.403</USER_DEFINED>
<USER_DEFINED parameter="APOAPSIS">778.906</USER_DEFINED>
<USER_DEFINED parameter="PERIAPSIS">776.433</USER_DEFINED>
<USER_DEFINED parameter="OBJECT_TYPE">PAYLOAD</USER_DEFINED>
<USER_DEFINED parameter="RCS_SIZE">LARGE</USER_DEFINED>
<USER_DEFINED parameter="COUNTRY_CODE">US</USER_DEFINED>
<USER_DEFINED parameter="LAUNCH_DATE">2017-06-25</USER_DEFINED>
<USER_DEFINED parameter="SITE">AFWTR</USER_DEFINED>
<USER_DEFINED parameter="DECAY_DATE"/>
<USER_DEFINED parameter="DECAYED"/>
<USER_DEFINED parameter="FILE">2875047</USER_DEFINED>
<USER_DEFINED parameter="GP_ID">165124760</USER_DEFINED>
</userDefinedParameters>
</data>
</segment>
</body>
</omm>

</ndm>